[{"OBJECT_NAME":"STARLINK-5802","OBJECT_ID":"2023-065BB","EPOCH":"2026-03-09T22:00:01.999584","MEAN_MOTION":15.13897641,"ECCENTRICITY":0.00010484,"INCLINATION":43.0008,"RA_OF_ASC_NODE":221.339,"ARG_OF_PERICENTER":299.0727,"MEAN_ANOMALY":221.6596,"EPHEMERIS_TYPE":0,"CLASSIFICATION_TYPE":"U","NORAD_CAT_ID":56552,"ELEMENT_SET_NO":999,"REV_AT_EPOCH":572,"BSTAR":0.0067226998,"MEAN_MOTION_DOT":0.00125852,"MEAN_MOTION_DDOT":0},{"OBJECT_NAME":"UNKNOWN","OBJECT_ID":"","EPOCH":"2026-03-09T03:40:49.808928","MEAN_MOTION":15.17985561,"ECCENTRICITY":0.0023398,"INCLINATION":66.7883,"RA_OF_ASC_NODE":96.9262,"ARG_OF_PERICENTER":16.4363,"MEAN_ANOMALY":343.7533,"EPHEMERIS_TYPE":0,"CLASSIFICATION_TYPE":"U","NORAD_CAT_ID":81449,"ELEMENT_SET_NO":999,"REV_AT_EPOCH":64658,"BSTAR":0.0066641,"MEAN_MOTION_DOT":0.00139351,"MEAN_MOTION_DDOT":0}]
